$$SOE
2460721.500000000, A.D. 2025-Feb-15 00:00:00.0000, 1.607807769748462E+08, 3.516509688170605E+08, 9.513273209424421E+06,
2460728.500000000, A.D. 2025-Feb-22 00:00:00.0000, 1.508287969052531E+08, 3.573107648209971E+08, 1.045861848144861E+07,
2460735.500000000, A.D. 2025-Mar-01 00:00:00.0000, 1.407514068340654E+08, 3.626737835154296E+08, 1.139526130853057E+07,
2460742.500000000, A.D. 2025-Mar-08 00:00:00.0000, 1.305580771500522E+08, 3.677383848172787E+08, 1.232251028864446E+07,
2460749.500000000, A.D. 2025-Mar-15 00:00:00.0000, 1.202582151043949E+08, 3.725032490624166E+08, 1.323969592243242E+07,
2460756.500000000, A.D. 2025-Mar-22 00:00:00.0000, 1.098611519682496E+08, 3.769673682153384E+08, 1.414617101836306E+07,
2460763.500000000, A.D. 2025-Mar-29 00:00:00.0000, 9.937613230320199E+07, 3.811300345908688E+08, 1.504131072964317E+07,
2460770.500000000, A.D. 2025-Apr-05 00:00:00.0000, 8.881230565958829E+07, 3.849908302820981E+08, 1.592451245279592E+07,
2460777.500000000, A.D. 2025-Apr-12 00:00:00.0000, 7.817871876161098E+07, 3.885496174452079E+08, 1.679519577616370E+07,
2460784.500000000, A.D. 2025-Apr-19 00:00:00.0000, 6.748430797232980E+07, 3.918065286043465E+08, 1.765280242685485E+07,
2460791.500000000, A.D. 2025-Apr-26 00:00:00.0000, 5.673789228889475E+07, 3.947619568164111E+08, 1.849679617800769E+07,
2460798.500000000, A.D. 2025-May-03 00:00:00.0000, 4.594816695909560E+07, 3.974165457548764E+08, 1.932666271082592E+07,
2460805.500000000, A.D. 2025-May-10 00:00:00.0000, 3.512369772389109E+07, 3.997711797580215E+08, 2.014190943272308E+07,
2460812.500000000, A.D. 2025-May-17 00:00:00.0000, 2.427291569756437E+07, 4.018269738339805E+08, 2.094206524804020E+07,
2460819.500000000, A.D. 2025-May-24 00:00:00.0000, 1.340411303332222E+07, 4.035852635985094E+08, 2.172668026406899E+07,
2460826.500000000, A.D. 2025-May-31 00:00:00.0000, 2.525439765103067E+06, 4.050475954844306E+08, 2.249532542257226E+07,
2460833.500000000, A.D. 2025-Jun-07 00:00:00.0000, -8.355098602119788E+06, 4.062157184541593E+08, 2.324759219503352E+07,
2460840.500000000, A.D. 2025-Jun-14 00:00:00.0000, -1.922964514272049E+07, 4.070915765702577E+08, 2.398309250660154E+07,
2460847.500000000, A.D. 2025-Jun-21 00:00:00.0000, -3.009049601201404E+07, 4.076772991666711E+08, 2.470145851233253E+07,
2460854.500000000, A.D. 2025-Jun-28 00:00:00.0000, -4.093010230146381E+07, 4.079751904032583E+08, 2.540234208601394E+07,
2460861.500000000, A.D. 2025-Jul-05 00:00:00.0000, -5.174107078984093E+07, 4.079877203787256E+08, 2.608541433944538E+07,
2460868.500000000, A.D. 2025-Jul-12 00:00:00.0000, -6.251616480583041E+07, 4.077175170080354E+08, 2.675036521777043E+07,
2460875.500000000, A.D. 2025-Jul-19 00:00:00.0000, -7.324830503829283E+07, 4.071673580979927E+08, 2.739690310867718E+07,
2460882.500000000, A.D. 2025-Jul-26 00:00:00.0000, -8.393057010970457E+07, 4.063401635723349E+08, 2.802475444374943E+07,
2460889.500000000, A.D. 2025-Aug-02 00:00:00.0000, -9.455619687203428E+07, 4.052389878744562E+08, 2.863366328979999E+07,
2460896.500000000, A.D. 2025-Aug-09 00:00:00.0000, -1.051185804255091E+08, 4.038670125380929E+08, 2.922339092882040E+07,
2460903.500000000, A.D. 2025-Aug-16 00:00:00.0000, -1.156112738064596E+08, 4.022275388662601E+08, 2.979371541622892E+07,
2460910.500000000, A.D. 2025-Aug-23 00:00:00.0000, -1.260279870740754E+08, 4.003239807371717E+08, 3.034443109377933E+07,
2460917.500000000, A.D. 2025-Aug-30 00:00:00.0000, -1.363625854891095E+08, 3.981598582527834E+08, 3.087534808713767E+07,
2460924.500000000, A.D. 2025-Sep-06 00:00:00.0000, -1.466090882233346E+08, 3.957387932324376E+08, 3.138629200168470E+07,
2460931.500000000, A.D. 2025-Sep-13 00:00:00.0000, -1.567616692868547E+08, 3.930645040685265E+08, 3.187710376817435E+07,
2460938.500000000, A.D. 2025-Sep-20 00:00:00.0000, -1.668146574154254E+08, 3.901407982924556E+08, 3.234763920457938E+07,
2460945.500000000, A.D. 2025-Sep-27 00:00:00.0000, -1.767625338782592E+08, 3.869715659567368E+08, 3.279776845241022E+07,
2460952.500000000, A.D. 2025-Oct-04 00:00:00.0000, -1.865999302400248E+08, 3.835607743688570E+08, 3.322737551743406E+07,
2460959.500000000, A.D. 2025-Oct-11 00:00:00.0000, -1.963216264668311E+08, 3.799124632275177E+08, 3.363635787279241E+07,
2460966.500000000, A.D. 2025-Oct-18 00:00:00.0000, -2.059225491098846E+08, 3.760307398812691E+08, 3.402462607709113E+07,
2460973.500000000, A.D. 2025-Oct-25 00:00:00.0000, -2.153977694437371E+08, 3.719197747173564E+08, 3.439210339662716E+07,
2460980.500000000, A.D. 2025-Nov-01 00:00:00.0000, -2.247425015337397E+08, 3.675837966936502E+08, 3.473872543021072E+07,
2460987.500000000, A.D. 2025-Nov-08 00:00:00.0000, -2.339521002100224E+08, 3.630270889784975E+08, 3.506443973129287E+07,
2460994.500000000, A.D. 2025-Nov-15 00:00:00.0000, -2.430220588107313E+08, 3.582539846345387E+08, 3.536920540921246E+07,
2461001.500000000, A.D. 2025-Nov-22 00:00:00.0000, -2.519480063019544E+08, 3.532688625599388E+08, 3.565299269062763E+07,
2461008.500000000, A.D. 2025-Nov-29 00:00:00.0000, -2.607257039379783E+08, 3.480761448151252E+08, 3.591578254795176E+07,
2461015.500000000, A.D. 2025-Dec-06 00:00:00.0000, -2.693510437498347E+08, 3.426802951936848E+08, 3.615756659264682E+07,
2461022.500000000, A.D. 2025-Dec-13 00:00:00.0000, -2.778200484357455E+08, 3.370858156615147E+08, 3.637834691811113E+07,
2461029.500000000, A.D. 2025-Dec-20 00:00:00.0000, -2.861288691663196E+08, 3.312972416776426E+08, 3.657813565520650E+07,
2461036.500000000, A.D. 2025-Dec-27 00:00:00.0000, -2.942737823881448E+08, 3.253191389804449E+08, 3.675695455082427E+07,
2461043.500000000, A.D. 2026-Jan-03 00:00:00.0000, -3.022511870934882E+08, 3.191561012198367E+08, 3.691483465324166E+07,
2461050.500000000, A.D. 2026-Jan-10 00:00:00.0000, -3.100576024519919E+08, 3.128127477515104E+08, 3.705181603880197E+07,
2461057.500000000, A.D. 2026-Jan-17 00:00:00.0000, -3.176896655769192E+08, 3.062937214957572E+08, 3.716794755114476E+07,
2461064.500000000, A.D. 2026-Jan-24 00:00:00.0000, -3.251441293528329E+08, 2.996036868778465E+08, 3.726328654771100E+07,
2461071.500000000, A.D. 2026-Jan-31 00:00:00.0000, -3.324178603054604E+08, 2.927473278370374E+08, 3.733789865071027E+07,
2461078.500000000, A.D. 2026-Feb-07 00:00:00.0000, -3.395078364557791E+08, 2.857293458412138E+08, 3.739185749207915E+07,
2461085.500000000, A.D. 2026-Feb-14 00:00:00.0000, -3.464111449083514E+08, 2.785544578858163E+08, 3.742524442774625E+07,
2461092.500000000, A.D. 2026-Feb-21 00:00:00.0000, -3.531249787894537E+08, 2.712273950476143E+08, 3.743814823258914E+07,
2461099.500000000, A.D. 2026-Feb-28 00:00:00.0000, -3.596466346239454E+08, 2.637529027403682E+08, 3.743066496972483E+07,
2461106.500000000, A.D. 2026-Mar-07 00:00:00.0000, -3.659735122145950E+08, 2.561357407177405E+08, 3.740289806367095E+07,
2461113.500000000, A.D. 2026-Mar-14 00:00:00.0000, -3.721031142505551E+08, 2.483806804866930E+08, 3.735495813224959E+07,
2461120.500000000, A.D. 2026-Mar-21 00:00:00.0000, -3.780330438628094E+08, 2.404925030224614E+08, 3.728696265051329E+07,
2461127.500000000, A.D. 2026-Mar-28 00:00:00.0000, -3.837610021400140E+08, 2.324759978077455E+08, 3.719903571518682E+07,
2461134.500000000, A.D. 2026-Apr-04 00:00:00.0000, -3.892847862122527E+08, 2.243359622271891E+08, 3.709130788628906E+07,
2461141.500000000, A.D. 2026-Apr-11 00:00:00.0000, -3.946022876302938E+08, 2.160772009535098E+08, 3.696391605147704E+07,
2461148.500000000, A.D. 2026-Apr-18 00:00:00.0000, -3.997114908818792E+08, 2.077045253139332E+08, 3.681700329795286E+07,
2461155.500000000, A.D. 2026-Apr-25 00:00:00.0000, -4.046104720001103E+08, 1.992227526468147E+08, 3.665071878891706E+07,
2461162.500000000, A.D. 2026-May-02 00:00:00.0000, -4.092973972341834E+08, 1.906367056142195E+08, 3.646521763931846E+07,
2461169.500000000, A.D. 2026-May-09 00:00:00.0000, -4.137705216587381E+08, 1.819512113999792E+08, 3.626066077403740E+07,
2461176.500000000, A.D. 2026-May-16 00:00:00.0000, -4.180281873444046E+08, 1.731711009276628E+08, 3.603721474507397E+07,
2461183.500000000, A.D. 2026-May-23 00:00:00.0000, -4.220688210377433E+08, 1.643012091170487E+08, 3.579505158636300E+07,
2461190.500000000, A.D. 2026-May-30 00:00:00.0000, -4.258909334291776E+08, 1.553463764948829E+08, 3.553434892267027E+07,
2461197.500000000, A.D. 2026-Jun-06 00:00:00.0000, -4.294931203265547E+08, 1.463114488834203E+08, 3.525529009380005E+07,
2461204.500000000, A.D. 2026-Jun-13 00:00:00.0000, -4.328740620658535E+08, 1.372012753623442E+08, 3.495806397364331E+07,
2461211.500000000, A.D. 2026-Jun-20 00:00:00.0000, -4.360325216569900E+08, 1.280207074235829E+08, 3.464286476850095E+07,
2461218.500000000, A.D. 2026-Jun-27 00:00:00.0000, -4.389673433648939E+08, 1.187745989724428E+08, 3.430989192225201E+07,
2461225.500000000, A.D. 2026-Jul-04 00:00:00.0000, -4.416774517300245E+08, 1.094678063965946E+08, 3.395935006488346E+07,
2461232.500000000, A.D. 2026-Jul-11 00:00:00.0000, -4.441618507770945E+08, 1.001051885691625E+08, 3.359144897014110E+07,
2461239.500000000, A.D. 2026-Jul-18 00:00:00.0000, -4.464196233203932E+08, 9.069160680994186E+07, 3.320640351559822E+07,
2461246.500000000, A.D. 2026-Jul-25 00:00:00.0000, -4.484499303413813E+08, 8.123192480535851E+07, 3.280443364273321E+07,
2461253.500000000, A.D. 2026-Aug-01 00:00:00.0000, -4.502520103901170E+08, 7.173100843649238E+07, 3.238576430826118E+07,
2461260.500000000, A.D. 2026-Aug-08 00:00:00.0000, -4.518251787951359E+08, 6.219372547641315E+07, 3.195062540370468E+07,
2461267.500000000, A.D. 2026-Aug-15 00:00:00.0000, -4.531688262661548E+08, 5.262494560417139E+07, 3.149925164161864E+07,
2461274.500000000, A.D. 2026-Aug-22 00:00:00.0000, -4.542824176501538E+08, 4.302954195336697E+07, 3.103188257778590E+07,
2461281.500000000, A.D. 2026-Aug-29 00:00:00.0000, -4.551654931307105E+08, 3.341239281896332E+07, 3.054876286692413E+07,
2461288.500000000, A.D. 2026-Sep-05 00:00:00.0000, -4.558176697389759E+08, 2.377838065183604E+07, 3.005014232176262E+07,
$$EOE